0 NIMBUS 2 DEB
1 32475U 66040AS  13282.75719834  .00001674  00000-0  31964-2 0  3073
2 32475 100.5698 007.8754 0058133 010.5445 113.7401 13.38701861305038
0 NIMBUS 2 DEB
1 32475U 66040AS  13285.20903605  .00001684  00000-0  32150-2 0  3087
2 32475 100.5700 010.4240 0058233 004.1286 050.6075 13.38710292305365
0 NIMBUS 2 DEB
1 32475U 66040AS  13286.24820211  .00001776  00000-0  33846-2 0  3099
2 32475 100.5702 011.5042 0058322 001.3679 019.0333 13.38713862305501
0 NIMBUS 2 DEB
1 32475U 66040AS  13288.19291497  .00002313  00000-0  43798-2 0  3100
2 32475 100.5700 013.5254 0058486 356.1573 031.9690 13.38723083305764
0 NIMBUS 2 DEB
1 32475U 66040AS  13289.23794072  .00002333  00000-0  44175-2 0  3116
2 32475 100.5703 014.6109 0058360 353.8783 028.1906 13.38726533305903
0 NIMBUS 2 DEB
1 32475U 66040AS  13290.51769281  .00002340  00000-0  44297-2 0  3127
2 32475 100.5702 015.9412 0058489 350.4389 076.2806 13.38732200306070
0 NIMBUS 2 DEB
1 32475U 66040AS  13291.79982453  .00002292  00000-0  43392-2 0  3138
2 32475 100.5701 017.2742 0058654 347.0232 135.8349 13.38737628306245
0 NIMBUS 2 DEB
1 32475U 66040AS  13292.70512777  .00002863  00000-0  53963-2 0  3148
2 32475 100.5700 018.2152 0058915 344.2756 179.5457 13.38747496306362
0 NIMBUS 2 DEB
1 32475U 66040AS  13293.20543236  .00002124  00000-0  40276-2 0  3152
2 32475 100.5696 018.7350 0059249 342.5326 071.2868 13.38736193306430
0 NIMBUS 2 DEB
1 32475U 66040AS  13293.74896459  .00002359  00000-0  44630-2 0  3168
2 32475 100.5697 019.3008 0059350 341.3159 170.7717 13.38747067306500
0 NIMBUS 2 DEB
1 32475U 66040AS  13295.21730687  .00002687  00000-0  50698-2 0  3178
2 32475 100.5693 020.8262 0059228 337.9454 047.3561 13.38752812306700
